0 COSMOS 256
1 03576U 68106A   13282.19306876  .00000335  00000-0  92071-3 0  7652
2 03576 074.0503 196.4255 0033121 050.8242 099.8676 13.16759636156100
0 COSMOS 256
1 03576U 68106A   13284.31764223 -.00000057  00000-0 -98006-4 0  7661
2 03576 074.0504 193.2420 0033184 047.1909 091.0699 13.16764215156386
0 COSMOS 256
1 03576U 68106A   13286.80222142 -.00000425  00000-0 -10553-2 0  7675
2 03576 074.0501 189.5193 0033255 042.9464 348.8538 13.16766883156711
0 COSMOS 256
1 03576U 68106A   13288.86076828 -.00000363  00000-0 -89580-3 0  7680
2 03576 074.0495 186.4350 0033276 039.3558 027.1940 13.16764838156982
0 COSMOS 256
1 03576U 68106A   13291.16072196  .00000049  00000-0  17621-3 0  7698
2 03576 074.0489 182.9890 0033315 035.3947 129.8468 13.16760111157286
0 COSMOS 256
1 03576U 68106A   13293.28184618  .00000399  00000-0  10867-2 0  7700
2 03576 074.0489 179.8107 0033369 031.7344 104.7606 13.16757722157563
0 COSMOS 256
1 03576U 68106A   13295.85118530  .00000344  00000-0  94314-3 0  7716
2 03576 074.0490 175.9606 0033441 027.3755 044.2711 13.16760099157908
